STARLINK-1448
1 25665C 20035J   21325.18247316  .00008100  00000-0  54280-3 0  3255
2 25665  53.0530 272.4106 0001961  59.8449 251.5421 15.06382386    15
